{"spkid": "20033342", "covariance": {"data": [["4.942658032865476E-18", "-3.394637373707466E-18", "-1.474847249134955E-15", "-1.574264497263205E-15", "3.909549252249366E-16", "-2.527454973172606E-16", "4.331208711746924E-25"], ["-3.394637373707466E-18", "2.338110950189804E-18", "1.019449871294323E-15", "1.057874883996235E-15", "-2.492151086584109E-16", "1.892864579486365E-16", "-2.745933298574864E-25"], ["-1.474847249134955E-15", "1.019449871294323E-15", "4.865869579594963E-13", "4.174359055577223E-13", "-3.594864336324853E-14", "9.674182618359137E-14", "-1.040800826305987E-22"], ["-1.574264497263205E-15", "1.057874883996235E-15", "4.174359055577223E-13", "7.428007653697787E-13", "-3.778642049676334E-13", "-1.195181195705067E-14", "-2.191259155675593E-22"], ["3.909549252249366E-16", "-2.492151086584109E-16", "-3.594864336324853E-14", "-3.778642049676334E-13", "3.251478342107043E-13", "6.763504932180607E-14", "1.037696091241183E-22"], ["-2.527454973172606E-16", "1.892864579486365E-16", "9.674182618359137E-14", "-1.195181195705067E-14", "6.763504932180607E-14", "8.407568028336246E-14", "3.201482660927388E-23"], ["4.331208711746924E-25", "-2.745933298574864E-25", "-1.040800826305987E-22", "-2.191259155675593E-22", "1.037696091241183E-22", "3.201482660927388E-23", "1.167850494397484E-31"]], "elements": [{"name": "e", "sigma": 2.22320894943896e-09, "units": null, "title": "eccentricity", "value": ".4177190352745163", "label": "e"}, {"value": ".4185520463735179", "title": "perihelion distance", "units": "au", "name": "q", "sigma": 1.5290882741653e-09, "label": "q"}, {"title": "time of perihelion passage", "value": "2457912.088005033088", "units": "TDB", "sigma": 6.97557852768856e-07, "name": "tp", "label": "tp"}, {"units": "deg", "title": "longitude of the ascending node", "value": "81.91898769404251", "sigma": 8.61858901079393e-07, "name": "om", "label": "node"}, {"units": "deg", "value": "167.3374148709145", "title": "argument of perihelion", "name": "w", "sigma": 5.70217356988284e-07, "label": "peri"}, {"label": "i", "units": "deg", "title": "inclination", "value": "7.356800800510849", "name": "i", "sigma": 2.89958066422306e-07}], "labels": ["e", "q", "tp", "node", "peri", "i", "A2"], "epoch": "2457813.5"}, "elements": [{"sigma": "2.2381E-9", "name": "e", "units": null, "title": "eccentricity", "value": ".4176323341477639", "label": "e"}, {"sigma": "3.49E-10", "name": "a", "title": "semi-major axis", "value": ".7186981142905206", "units": "au", "label": "a"}, {"label": "q", "units": "au", "title": "perihelion distance", "value": ".418546543271774", "sigma": "1.5064E-9", "name": "q"}, {"units": "deg", "title": "inclination; angle with respect to x-y ecliptic plane", "value": "7.368421100520266", "name": "i", "sigma": "2.8983E-7", "label": "i"}, {"label": "node", "value": "81.65755294657905", "title": "longitude of the ascending node", "units": "deg", "sigma": "8.643E-7", "name": "om"}, {"title": "argument of perihelion", "value": "167.5121134476977", "units": "deg", "name": "w", "sigma": "5.6833E-7", "label": "peri"}, {"sigma": "2.7865E-6", "name": "ma", "units": "deg", "title": "mean anomaly", "value": "278.1060278181417", "label": "M"}, {"label": "tp", "units": "TDB", "title": "time of perihelion passage", "value": "2461251.125301277831", "sigma": "1.7568E-6", "name": "tp"}, {"units": "d", "value": "222.5451760911951", "title": "sidereal orbital period", "sigma": "1.621E-7", "name": "per", "label": "period"}, {"label": "n", "units": "deg/d", "title": "mean motion", "value": "1.617649082865217", "sigma": "1.1783E-9", "name": "n"}, {"units": "au", "value": "1.018849685309267", "title": "aphelion distance", "sigma": "4.9475E-10", "name": "ad", "label": "Q"}], "epoch": "2461200.5"}